*******************************************************************************
JPL/HORIZONS               1791 Patsayev (1967 RE)         2023-Sep-04 11:14:11
Rec #:    1791 (+COV) Soln.date: 2023-Aug-22_10:56:51   # obs: 4700 (1931-2023)
 
IAU76/J2000 helio. ecliptic osc. elements (au, days, deg., period=Julian yrs):
 
  EPOCH=  2457693.5 ! 2016-Nov-01.00 (TDB)         Residual RMS= .24635
   EC= .1409200009022517   QR= 2.360183778814272   TP= 2457773.9479714301
   OM= 198.8919786572805   W=  74.37142415436573   IN= 5.368899831366707
   A= 2.747338759246011    MA= 342.5879120740282   ADIST= 3.13449373967775
   PER= 4.55383            N= .216439117           ANGMOM= .02822812
   DAN= 2.59429            DDN= 2.79904            L= 273.197923
   B= 5.1698517            MOID= 1.34955001        TP= 2017-Jan-20.4479714301
 
Asteroid physical parameters (km, seconds, rotational period in hours):
   GM= n.a.                RAD= 14.697             ROTPER= 19.809
   H= 11.9                 G= .150                 B-V= n.a.
                           ALBEDO= .034            STYP= n.a.

ASTEROID comments: 
1: soln ref.= JPL#60, OCC=0
2: source=ORB
*******************************************************************************


*******************************************************************************
Ephemeris / API_USER Mon Sep  4 11:14:11 2023 Pasadena, USA      / Horizons
*******************************************************************************
Target body name: 1791 Patsayev (1967 RE)         {source: JPL#60}
Center body name: Solar System Barycenter (0)     {source: DE441}
Center-site name: BODY CENTER
*******************************************************************************
Start time      : A.D. 2023-Aug-12 00:00:00.0000 TDB
Stop  time      : A.D. 2023-Aug-13 00:00:00.0000 TDB
Step-size       : 2880 minutes
*******************************************************************************
Center geodetic : 0.0, 0.0, 0.0                   {E-lon(deg),Lat(deg),Alt(km)}
Center cylindric: 0.0, 0.0, 0.0                   {E-lon(deg),Dxy(km),Dz(km)}
Center radii    : (undefined)
Small perturbers: Yes                             {source: SB441-N16}
Output units    : KM-S
Calendar mode   : Mixed Julian/Gregorian
Output type     : GEOMETRIC cartesian states
Output format   : 2 (position and velocity)
Reference frame : Ecliptic of J2000.0
*******************************************************************************
Initial IAU76/J2000 heliocentric ecliptic osculating elements (au, days, deg.):
  EPOCH=  2457693.5 ! 2016-Nov-01.00 (TDB)         Residual RMS= .24635        
   EC= .1409200009022517   QR= 2.360183778814272   TP= 2457773.9479714301      
   OM= 198.8919786572805   W=  74.37142415436573   IN= 5.368899831366707       
  Equivalent ICRF heliocentric cartesian coordinates (au, au/d):
   X=-8.155659588152209E-01  Y=-2.118231011668706E+00  Z=-7.289648683585718E-01
  VX= 1.131955305577889E-02 VY=-3.435375437853160E-03 VZ=-7.785138733771227E-04
Asteroid physical parameters (km, seconds, rotational period in hours):        
   GM= n.a.                RAD= 14.697             ROTPER= 19.809              
   H= 11.9                 G= .150                 B-V= n.a.                   
                           ALBEDO= .034            STYP= n.a.                  
*******************************************************************************
JDTDB
   X     Y     Z
   VX    VY    VZ
*******************************************************************************
$$SOE
2460168.500000000 = A.D. 2023-Aug-12 00:00:00.0000 TDB 
 X = 1.078313735249715E+08 Y = 4.517866090192964E+08 Z =-3.693898289538145E+07
 VX=-1.503752384607820E+01 VY= 4.325827360101735E+00 VZ=-8.437171878478429E-01
$$EOE
*******************************************************************************
 
TIME

  Barycentric Dynamical Time ("TDB" or T_eph) output was requested. This
continuous coordinate time is equivalent to the relativistic proper time
of a clock at rest in a reference frame co-moving with the solar system
barycenter but outside the system's gravity well. It is the independent
variable in the solar system relativistic equations of motion.

  TDB runs at a uniform rate of one SI second per second and is independent
of irregularities in Earth's rotation.
 
CALENDAR SYSTEM

  Mixed calendar mode was active such that calendar dates after AD 1582-Oct-15
(if any) are in the modern Gregorian system. Dates prior to 1582-Oct-5 (if any)
are in the Julian calendar system, which is automatically extended for dates
prior to its adoption on 45-Jan-1 BC.  The Julian calendar is useful for
matching historical dates. The Gregorian calendar more accurately corresponds
to the Earth's orbital motion and seasons. A "Gregorian-only" calendar mode is
available if such physical events are the primary interest.

REFERENCE FRAME AND COORDINATES

  Ecliptic at the standard reference epoch

    Reference epoch: J2000.0
    X-Y plane: adopted Earth orbital plane at the reference epoch
               Note: IAU76 obliquity of 84381.448 arcseconds wrt ICRF X-Y plane
    X-axis   : ICRF
    Z-axis   : perpendicular to the X-Y plane in the directional (+ or -) sense
               of Earth's north pole at the reference epoch.

  Symbol meaning:

    JDTDB    Julian Day Number, Barycentric Dynamical Time
      X      X-component of position vector (km)
      Y      Y-component of position vector (km)
      Z      Z-component of position vector (km)
      VX     X-component of velocity vector (km/sec)                           
      VY     Y-component of velocity vector (km/sec)                           
      VZ     Z-component of velocity vector (km/sec)                           

ABERRATIONS AND CORRECTIONS

 Geometric state vectors have NO corrections or aberrations applied.

Computations by ...

    Solar System Dynamics Group, Horizons On-Line Ephemeris System
    4800 Oak Grove Drive, Jet Propulsion Laboratory
    Pasadena, CA  91109   USA

    General site: https://ssd.jpl.nasa.gov/
    Mailing list: https://ssd.jpl.nasa.gov/email_list.html
    System news : https://ssd.jpl.nasa.gov/horizons/news.html
    User Guide  : https://ssd.jpl.nasa.gov/horizons/manual.html
    Connect     : browser        https://ssd.jpl.nasa.gov/horizons/app.html#/x
                  API            https://ssd-api.jpl.nasa.gov/doc/horizons.html
                  command-line   telnet ssd.jpl.nasa.gov 6775
                  e-mail/batch   https://ssd.jpl.nasa.gov/ftp/ssd/hrzn_batch.txt
                  scripts        https://ssd.jpl.nasa.gov/ftp/ssd/SCRIPTS
    Author      : Jon.D.Giorgini@jpl.nasa.gov
*******************************************************************************
